[
    {
        "Altitude(m)": 570701.031614671,
        "Argument of Periapsis(deg)": 0.0,
        "Eccentricity": 0.0,
        "Inclination(deg)": 97.0,
        "Latitude(deg)": -18.70257931197427,
        "Longitude(deg)": 107.66145485240948,
        "Mean Anomaly(deg)": 198.6207,
        "RAAN(deg)": 30.0,
        "Satellite Name": "Starlink Shell 3 1674",
        "Satellite Number": 1674,
        "Semi-Major Axis(m)": 6938478.169268562,
        "Time(s)": 0
    },
    {
        "Altitude(m)": 570898.8290607834,
        "Argument of Periapsis(deg)": -0.0003965466804030246,
        "Eccentricity": 0.0,
        "Inclination(deg)": 97.0,
        "Latitude(deg)": -19.325137434636076,
        "Longitude(deg)": 107.53465077045244,
        "Mean Anomaly(deg)": 199.24617619770504,
        "RAAN(deg)": 30.00010433427401,
        "Satellite Name": "Starlink Shell 3 1674",
        "Satellite Number": 1674,
        "Semi-Major Axis(m)": 6938478.169268562,
        "Time(s)": 10
    },
    {
        "Altitude(m)": 571099.6625074319,
        "Argument of Periapsis(deg)": -0.0007930933608060492,
        "Eccentricity": 0.0,
        "Inclination(deg)": 97.0,
        "Latitude(deg)": -19.947588127377205,
        "Longitude(deg)": 107.40720477609611,
        "Mean Anomaly(deg)": 199.87165239541005,
        "RAAN(deg)": 30.000208668548012,
        "Satellite Name": "Starlink Shell 3 1674",
        "Satellite Number": 1674,
        "Semi-Major Axis(m)": 6938478.169268562,
        "Time(s)": 20
    },
    {
        "Altitude(m)": 571303.4626905759,
        "Argument of Periapsis(deg)": -0.001189640041209074,
        "Eccentricity": 0.0,
        "Inclination(deg)": 97.0,
        "Latitude(deg)": -20.569928314323825,
        "Longitude(deg)": 107.27908917103515,
        "Mean Anomaly(deg)": 200.49712859311518,
        "RAAN(deg)": 30.000313002822026,
        "Satellite Name": "Starlink Shell 3 1674",
        "Satellite Number": 1674,
        "Semi-Major Axis(m)": 6938478.169268562,
        "Time(s)": 30
    },
    {
        "Altitude(m)": 571510.1588308818,
        "Argument of Periapsis(deg)": -0.0015861867216120985,
        "Eccentricity": 0.0,
        "Inclination(deg)": 97.0,
        "Latitude(deg)": -21.19215490346946,
        "Longitude(deg)": 107.1502760217208,
        "Mean Anomaly(deg)": 201.1226047908202,
        "RAAN(deg)": 30.000417337096035,
        "Satellite Name": "Starlink Shell 3 1674",
        "Satellite Number": 1674,
        "Semi-Major Axis(m)": 6938478.169268562,
        "Time(s)": 40
    },
    {
        "Altitude(m)": 571719.678665906,
        "Argument of Periapsis(deg)": -0.0019827334020151234,
        "Eccentricity": 0.0,
        "Inclination(deg)": 97.0,
        "Latitude(deg)": -21.81426478488693,
        "Longitude(deg)": 107.02073611108666,
        "Mean Anomaly(deg)": 201.74808098852523,
        "RAAN(deg)": 30.00052167137004,
        "Satellite Name": "Starlink Shell 3 1674",
        "Satellite Number": 1674,
        "Semi-Major Axis(m)": 6938478.169268562,
        "Time(s)": 50
    },
    {
        "Altitude(m)": 571931.9484829728,
        "Argument of Periapsis(deg)": -0.002379280082418148,
        "Eccentricity": 0.0,
        "Inclination(deg)": 97.0,
        "Latitude(deg)": -22.436254828802973,
        "Longitude(deg)": 106.8904394012185,
        "Mean Anomaly(deg)": 202.37355718623024,
        "RAAN(deg)": 30.00062600564405,
        "Satellite Name": "Starlink Shell 3 1674",
        "Satellite Number": 1674,
        "Semi-Major Axis(m)": 6938478.169268562,
        "Time(s)": 60
    },
    {
        "Altitude(m)": 572146.8931527447,
        "Argument of Periapsis(deg)": -0.002775826762821173,
        "Eccentricity": 0.0,
        "Inclination(deg)": 97.0,
        "Latitude(deg)": -23.058121883529658,
        "Longitude(deg)": 106.75935549396516,
        "Mean Anomaly(deg)": 202.99903338393528,
        "RAAN(deg)": 30.00073033991806,
        "Satellite Name": "Starlink Shell 3 1674",
        "Satellite Number": 1674,
        "Semi-Major Axis(m)": 6938478.169268562,
        "Time(s)": 70
    },
    {
        "Altitude(m)": 572364.4361634859,
        "Argument of Periapsis(deg)": -0.003172373443224197,
        "Eccentricity": 0.0,
        "Inclination(deg)": 97.0,
        "Latitude(deg)": -23.679862773241183,
        "Longitude(deg)": 106.6274525764789,
        "Mean Anomaly(deg)": 203.6245095816404,
        "RAAN(deg)": 30.000834674192067,
        "Satellite Name": "Starlink Shell 3 1674",
        "Satellite Number": 1674,
        "Semi-Major Axis(m)": 6938478.169268562,
        "Time(s)": 80
    },
    {
        "Altitude(m)": 572584.4996559878,
        "Argument of Periapsis(deg)": -0.0035689201236272223,
        "Eccentricity": 0.0,
        "Inclination(deg)": 97.0,
        "Latitude(deg)": -24.30147429558723,
        "Longitude(deg)": 106.4946978772791,
        "Mean Anomaly(deg)": 204.24998577934545,
        "RAAN(deg)": 30.000939008466077,
        "Satellite Name": "Starlink Shell 3 1674",
        "Satellite Number": 1674,
        "Semi-Major Axis(m)": 6938478.169268562,
        "Time(s)": 90
    },
    {
        "Altitude(m)": 572807.004459105,
        "Argument of Periapsis(deg)": -0.003965466804030247,
        "Eccentricity": 0.0,
        "Inclination(deg)": 97.0,
        "Latitude(deg)": -24.92295321913429,
        "Longitude(deg)": 106.3610581198075,
        "Mean Anomaly(deg)": 204.87546197705043,
        "RAAN(deg)": 30.001043342740093,
        "Satellite Name": "Starlink Shell 3 1674",
        "Satellite Number": 1674,
        "Semi-Major Axis(m)": 6938478.169268562,
        "Time(s)": 100
    },
    {
        "Altitude(m)": 573031.8701259274,
        "Argument of Periapsis(deg)": -0.004362013484433271,
        "Eccentricity": 0.0,
        "Inclination(deg)": 97.0,
        "Latitude(deg)": -25.54429628062075,
        "Longitude(deg)": 106.22649846042924,
        "Mean Anomaly(deg)": 205.50093817475548,
        "RAAN(deg)": 30.001147677014096,
        "Satellite Name": "Starlink Shell 3 1674",
        "Satellite Number": 1674,
        "Semi-Major Axis(m)": 6938478.169268562,
        "Time(s)": 110
    },
    {
        "Altitude(m)": 573259.0149705791,
        "Argument of Periapsis(deg)": -0.004758560164836296,
        "Eccentricity": 0.0,
        "Inclination(deg)": 97.0,
        "Latitude(deg)": -26.16550018201565,
        "Longitude(deg)": 106.09098293644064,
        "Mean Anomaly(deg)": 206.12641437246052,
        "RAAN(deg)": 30.00125201128811,
        "Satellite Name": "Starlink Shell 3 1674",
        "Satellite Number": 1674,
        "Semi-Major Axis(m)": 6938478.169268562,
        "Time(s)": 120
    },
    {
        "Altitude(m)": 573488.3561055404,
        "Argument of Periapsis(deg)": -0.005155106845239321,
        "Eccentricity": 0.0,
        "Inclination(deg)": 97.0,
        "Latitude(deg)": -26.78656158736863,
        "Longitude(deg)": 105.95447491101145,
        "Mean Anomaly(deg)": 206.75189057016556,
        "RAAN(deg)": 30.00135634556212,
        "Satellite Name": "Starlink Shell 3 1674",
        "Satellite Number": 1674,
        "Semi-Major Axis(m)": 6938478.169268562,
        "Time(s)": 130
    },
    {
        "Altitude(m)": 573719.8094795839,
        "Argument of Periapsis(deg)": -0.005551653525642346,
        "Eccentricity": 0.0,
        "Inclination(deg)": 97.0,
        "Latitude(deg)": -27.407477119436425,
        "Longitude(deg)": 105.8169360019767,
        "Mean Anomaly(deg)": 207.37736676787068,
        "RAAN(deg)": 30.001460679836125,
        "Satellite Name": "Starlink Shell 3 1674",
        "Satellite Number": 1674,
        "Semi-Major Axis(m)": 6938478.169268562,
        "Time(s)": 140
    },
    {
        "Altitude(m)": 573953.2899161952,
        "Argument of Periapsis(deg)": -0.005948200206045371,
        "Eccentricity": 0.0,
        "Inclination(deg)": 97.0,
        "Latitude(deg)": -28.02824335607166,
        "Longitude(deg)": 105.67832651999184,
        "Mean Anomaly(deg)": 208.00284296557567,
        "RAAN(deg)": 30.001565014110135,
        "Satellite Name": "Starlink Shell 3 1674",
        "Satellite Number": 1674,
        "Semi-Major Axis(m)": 6938478.169268562,
        "Time(s)": 150
    },
    {
        "Altitude(m)": 574188.7111525678,
        "Argument of Periapsis(deg)": -0.006344746886448394,
        "Eccentricity": 0.0,
        "Inclination(deg)": 97.0,
        "Latitude(deg)": -28.648856826358706,
        "Longitude(deg)": 105.53860590293124,
        "Mean Anomaly(deg)": 208.6283191632807,
        "RAAN(deg)": 30.001669348384144,
        "Satellite Name": "Starlink Shell 3 1674",
        "Satellite Number": 1674,
        "Semi-Major Axis(m)": 6938478.169268562,
        "Time(s)": 160
    },
    {
        "Altitude(m)": 574425.9858790584,
        "Argument of Periapsis(deg)": -0.00674129356685142,
        "Eccentricity": 0.0,
        "Inclination(deg)": 97.0,
        "Latitude(deg)": -29.26931400647779,
        "Longitude(deg)": 105.39773163339116,
        "Mean Anomaly(deg)": 209.25379536098575,
        "RAAN(deg)": 30.00177368265815,
        "Satellite Name": "Starlink Shell 3 1674",
        "Satellite Number": 1674,
        "Semi-Major Axis(m)": 6938478.169268562,
        "Time(s)": 170
    },
    {
        "Altitude(m)": 574665.0257791174,
        "Argument of Periapsis(deg)": -0.007137840247254445,
        "Eccentricity": 0.0,
        "Inclination(deg)": 97.0,
        "Latitude(deg)": -29.889611315280845,
        "Longitude(deg)": 105.25565966475308,
        "Mean Anomaly(deg)": 209.87927155869076,
        "RAAN(deg)": 30.00187801693216,
        "Satellite Name": "Starlink Shell 3 1674",
        "Satellite Number": 1674,
        "Semi-Major Axis(m)": 6938478.169268562,
        "Time(s)": 180
    }
]